STARLINK-36472          
1 67346U 26003N   26198.10673321  .00008258  00000+0  30916-3 0  9990
2 67346  42.9986 216.4416 0001110 217.0058 143.0717 15.27592849 28607
STARLINK-36420          
1 67347U 26003P   26198.42337167  .00013004  00000+0  48074-3 0  9990
2 67347  43.0004 214.5180 0001321 274.7871  85.2830 15.27614145 28668
STARLINK-36467          
1 67348U 26003Q   26198.36186003  .00006023  00000+0  22818-3 0  9996
2 67348  43.0013 214.9162 0001224 264.6489  95.4223 15.27583648 28659
STARLINK-36457          
1 67349U 26003R   26198.41182586  .00007368  00000+0  27701-3 0  9994
2 67349  42.9999 214.4243 0001457 263.2305  96.8381 15.27580293 28660
STARLINK-36475          
1 67350U 26003S   26198.39769623 -.00005753  00000+0 -19987-3 0  9991
2 67350  42.9977 214.3176 0001093 277.0180  83.0547 15.27552427 28662
STARLINK-36478          
1 67351U 26003T   26198.52075171  .00006637  00000+0  25045-3 0  9997
2 67351  42.9987 213.5216 0001668 281.3206  78.7458 15.27583187 28686
STARLINK-36479          
1 67352U 26003U   26198.51432212  .00008060  00000+0  30199-3 0  9998
2 67352  42.9988 213.4734 0001540 268.6499  91.4176 15.27589918 28680
STARLINK-36474          
1 67353U 26003V   26198.05290563 -.00002156  00000+0 -68796-4 0  9996
2 67353  42.9993 216.9021 0002026 287.4153  72.6477 15.27601368 28601
STARLINK-36448          
1 67354U 26003W   26198.35414600  .00010297  00000+0  38312-3 0  9993
2 67354  43.0019 214.8510 0001806 279.3833  80.6815 15.27586027 28657
STARLINK-36477          
1 67355U 26003X   26198.50676461  .00006712  00000+0  25318-3 0  9995
2 67355  43.0015 214.2891 0002190 289.6980  70.3635 15.27584813 28673
STARLINK-36429          
1 67356U 26003Y   26198.37213618  .00008817  00000+0  32950-3 0  9990
2 67356  43.0047 215.0004 0003481 291.0107  69.0372 15.27581345 28654
STARLINK-36456          
1 67357U 26003Z   26198.41568097  .00005809  00000+0  22041-3 0  9998
2 67357  42.9992 214.4534 0001399 276.6554  83.4138 15.27583831 28667
STARLINK-36466          
1 67358U 26003AA  26198.06692249  .00009001  00000+0  33625-3 0  9995
2 67358  42.9973 216.1307 0001365 265.6627  94.4068 15.27577061 28613
STARLINK-36499          
1 67359U 26003AB  26198.05419722  .00007249  00000+0  27259-3 0  9996
2 67359  42.9981 216.9114 0001799 301.0097  59.0578 15.27593618 28602
STARLINK-36469          
1 67360U 26003AC  26198.37727712  .00005895  00000+0  22353-3 0  9999
2 67360  43.0005 215.0336 0001713 280.2828  79.7830 15.27586720 28656
STARLINK-35306          
1 67361U 26003AD  26198.40924315  .00013006  00000+0  48088-3 0  9998
2 67361  42.9966 214.4053 0000907 268.1218  91.9529 15.27608454 28663
STARLINK-36428          
1 67362U 26003AE  26198.40667863  .00005129  00000+0  19570-3 0  9992
2 67362  42.9980 214.3837 0000947 298.5227  61.5530 15.27590069 28667
LEMUR-2 FIKRETDENGIZ    
1 67363U 26004A   26197.98275150  .00001639  00000+0  18210-3 0  9992
2 67363  97.8028 196.0882 0010076  50.7070 309.5038 14.88523570 27716
TWILIGHT-1 OBJECT B     
1 67364U 26004B   26198.42429466  .00000846  00000+0  98536-4 0  9993
2 67364  97.8076 196.5227 0009580  39.4014 320.7898 14.87797460 27784
LEMUR-2-MARIO-SOUSA     
1 67365U 26004C   26198.43284725  .00001948  00000+0  21412-3 0  9994
2 67365  97.8002 196.5266 0009682  50.9541 309.2537 14.88737834 27796
LEMUR-2 CALLUM-K-J      
1 67366U 26004D   26198.45256564  .00002032  00000+0  22456-3 0  9991
2 67366  97.8026 196.5547 0009938  45.7429 314.4602 14.88482844 27795
LEMUR-2-SONNENBLUME     
1 67367U 26004E   26198.43611553  .00001287  00000+0  14447-3 0  9995
2 67367  97.8002 196.5014 0009275  51.9713 308.2340 14.88459429 27791
LEMUR-2-WOBLER          
1 67368U 26004F   26198.22339324  .00001894  00000+0  20858-3 0  9993
2 67368  97.8052 196.4452 0009361  44.1369 316.0594 14.88706069 27769
BLACKCAT                
1 67369U 26004G   26198.42063852  .00000770  00000+0  90334-4 0  9995
2 67369  97.7993 196.3550 0008526  53.4926 306.7075 14.87746221 27780
LEMUR-2-GRAM-E-SUE      
1 67370U 26004H   26197.94679961  .00001204  00000+0  13514-3 0  9994
2 67370  97.7987 196.0361 0008489  56.2455 303.9570 14.88593718 27723
UMBRA-12                
1 67371U 26004J   26198.40569577  .00002411  00000+0  25860-3 0  9996
2 67371  97.8025 196.7621 0007272  47.1053 313.0774 14.89542274 27805
ICEYE-X63               
1 67372U 26004K   26198.47012257  .00000421  00000+0  51364-4 0  9990
2 67372  97.8015 196.6380 0005285  45.9964 314.1688 14.88351244 27805
ICEYE-X64               
1 67373U 26004L   26198.45213807  .00000579  00000+0  69051-4 0  9999
2 67373  97.8029 196.5386 0007132  48.1717 312.0108 14.87990344 27791
AETHER-3                
1 67374U 26004M   26198.41991547  .00000329  00000+0  41669-4 0  9998
2 67374  97.8014 196.5463 0004999  47.9559 312.2082 14.88053682 27790
AETHER-4                
1 67375U 26004N   26198.40874249  .00000265  00000+0  36161-4 0  9997
2 67375  97.8049 196.4898 0002935 104.9698 255.1843 14.86286022 27789
