OBJECT_NAME,OBJECT_ID,EPOCH,MEAN_MOTION,ECCENTRICITY,INCLINATION,RA_OF_ASC_NODE,ARG_OF_PERICENTER,MEAN_ANOMALY,EPHEMERIS_TYPE,CLASSIFICATION_TYPE,NORAD_CAT_ID,ELEMENT_SET_NO,REV_AT_EPOCH,BSTAR,MEAN_MOTION_DOT,MEAN_MOTION_DDOT
STARLINK-36472,2026-003N,2026-07-17T02:33:41.749344,15.27592849,.000111,42.9986,216.4416,217.0058,143.0717,0,U,67346,999,2860,.30916134E-3,.8258E-4,0
STARLINK-36420,2026-003P,2026-07-17T10:09:39.312288,15.27614145,.00013219,43.0004,214.5180,274.7871,85.2830,0,U,67347,999,2866,.48074037E-3,.13004E-3,0
STARLINK-36467,2026-003Q,2026-07-17T08:41:04.706592,15.27583648,.00012247,43.0013,214.9162,264.6489,95.4223,0,U,67348,999,2865,.22818287E-3,.6023E-4,0
STARLINK-36457,2026-003R,2026-07-17T09:53:01.754304,15.27580293,.00014574,42.9999,214.4243,263.2305,96.8381,0,U,67349,999,2866,.27701236E-3,.7368E-4,0
STARLINK-36475,2026-003S,2026-07-17T09:32:40.954272,15.27552427,.00010936,42.9977,214.3176,277.0180,83.0547,0,U,67350,999,2866,-.19987335E-3,-.5753E-4,0
STARLINK-36478,2026-003T,2026-07-17T12:29:52.947744,15.27583187,.00016689,42.9987,213.5216,281.3206,78.7458,0,U,67351,999,2868,.25045276E-3,.6637E-4,0
STARLINK-36479,2026-003U,2026-07-17T12:20:37.431168,15.27589918,.00015402,42.9988,213.4734,268.6499,91.4176,0,U,67352,999,2868,.3019854E-3,.806E-4,0
STARLINK-36474,2026-003V,2026-07-17T01:16:11.046432,15.27601368,.00020265,42.9993,216.9021,287.4153,72.6477,0,U,67353,999,2860,-.68795713E-4,-.2156E-4,0
STARLINK-36448,2026-003W,2026-07-17T08:29:58.214400,15.27586027,.00018063,43.0019,214.8510,279.3833,80.6815,0,U,67354,999,2865,.38312028E-3,.10297E-3,0
STARLINK-36477,2026-003X,2026-07-17T12:09:44.462304,15.27584813,.00021909,43.0015,214.2891,289.6980,70.3635,0,U,67355,999,2867,.2531767E-3,.6712E-4,0
STARLINK-36429,2026-003Y,2026-07-17T08:55:52.565952,15.27581345,.0003481,43.0047,215.0004,291.0107,69.0372,0,U,67356,999,2865,.32950374E-3,.8817E-4,0
STARLINK-36456,2026-003Z,2026-07-17T09:58:34.835808,15.27583831,.00013994,42.9992,214.4534,276.6554,83.4138,0,U,67357,999,2866,.22041055E-3,.5809E-4,0
STARLINK-36466,2026-003AA,2026-07-17T01:36:22.103136,15.27577061,.00013654,42.9973,216.1307,265.6627,94.4068,0,U,67358,999,2861,.33625153E-3,.9001E-4,0
STARLINK-36499,2026-003AB,2026-07-17T01:18:02.639808,15.27593618,.00017997,42.9981,216.9114,301.0097,59.0578,0,U,67359,999,2860,.27259057E-3,.7249E-4,0
STARLINK-36469,2026-003AC,2026-07-17T09:03:16.743168,15.27586720,.00017138,43.0005,215.0336,280.2828,79.7830,0,U,67360,999,2865,.22353168E-3,.5895E-4,0
STARLINK-35306,2026-003AD,2026-07-17T09:49:18.608160,15.27608454,.00009078,42.9966,214.4053,268.1218,91.9529,0,U,67361,999,2866,.48087826E-3,.13006E-3,0
STARLINK-36428,2026-003AE,2026-07-17T09:45:37.033632,15.27590069,.00009475,42.9980,214.3837,298.5227,61.5530,0,U,67362,999,2866,.19569946E-3,.5129E-4,0
LEMUR-2 FIKRETDENGIZ,2026-004A,2026-07-16T23:35:09.729600,14.88523570,.00100761,97.8028,196.0882,50.7070,309.5038,0,U,67363,999,2771,.18209536E-3,.1639E-4,0
TWILIGHT-1 OBJECT B,2026-004B,2026-07-17T10:10:59.058624,14.87797460,.000958,97.8076,196.5227,39.4014,320.7898,0,U,67364,999,2778,.98536252E-4,.846E-5,0
LEMUR-2-MARIO-SOUSA,2026-004C,2026-07-17T10:23:18.002400,14.88737834,.00096828,97.8002,196.5266,50.9541,309.2537,0,U,67365,999,2779,.21412002E-3,.1948E-4,0
LEMUR-2 CALLUM-K-J,2026-004D,2026-07-17T10:51:41.671296,14.88482844,.00099383,97.8026,196.5547,45.7429,314.4602,0,U,67366,999,2779,.22455844E-3,.2032E-4,0
LEMUR-2-SONNENBLUME,2026-004E,2026-07-17T10:28:00.381792,14.88459429,.00092755,97.8002,196.5014,51.9713,308.2340,0,U,67367,999,2779,.1444683E-3,.1287E-4,0
LEMUR-2-WOBLER,2026-004F,2026-07-17T05:21:41.175936,14.88706069,.00093612,97.8052,196.4452,44.1369,316.0594,0,U,67368,999,2776,.20858033E-3,.1894E-4,0
BLACKCAT,2026-004G,2026-07-17T10:05:43.168128,14.87746221,.00085262,97.7993,196.3550,53.4926,306.7075,0,U,67369,999,2778,.90334068E-4,.77E-5,0
LEMUR-2-GRAM-E-SUE,2026-004H,2026-07-16T22:43:23.486304,14.88593718,.00084893,97.7987,196.0361,56.2455,303.9570,0,U,67370,999,2772,.13514085E-3,.1204E-4,0
UMBRA-12,2026-004J,2026-07-17T09:44:12.114528,14.89542274,.0007272,97.8025,196.7621,47.1053,313.0774,0,U,67371,999,2780,.25859683E-3,.2411E-4,0
ICEYE-X63,2026-004K,2026-07-17T11:16:58.590048,14.88351244,.00052854,97.8015,196.6380,45.9964,314.1688,0,U,67372,999,2780,.51363787E-4,.421E-5,0
ICEYE-X64,2026-004L,2026-07-17T10:51:04.729248,14.87990344,.00071322,97.8029,196.5386,48.1717,312.0108,0,U,67373,999,2779,.69050697E-4,.579E-5,0
AETHER-3,2026-004M,2026-07-17T10:04:40.696608,14.88053682,.0004999,97.8014,196.5463,47.9559,312.2082,0,U,67374,999,2779,.41669314E-4,.329E-5,0
AETHER-4,2026-004N,2026-07-17T09:48:35.351136,14.86286022,.00029354,97.8049,196.4898,104.9698,255.1843,0,U,67375,999,2778,.36161367E-4,.265E-5,0
